H1 CPF 01  gfz 2022 11 13 13  8172 tandemx   
H2 1003001  6202 36605    2022 11 13 12 59 42 2022 11 18 00 00 42   120 1 1  0 0 0
H9
10 0 59900  15822.000000  0   -6033846.582  -2419728.054   2270419.282
10 0 59900  15942.000000  0   -5768917.440  -2120942.690   3101550.150
10 0 59900  16062.000000  0   -5397601.259  -1790634.834   3878055.392
10 0 59900  16182.000000  0   -4925925.844  -1436396.550   4586274.517
10 0 59900  16302.000000  0   -4361813.857  -1066115.974   5213762.987
10 0 59900  16422.000000  0   -3714942.044   -687805.172   5749509.146
10 0 59900  16542.000000  0   -2996567.460   -309428.920   6184125.312
10 0 59900  16662.000000  0   -2219323.329     61261.828   6510007.664
10 0 59900  16782.000000  0   -1396990.342    416886.316   6721462.347
10 0 59900  16902.000000  0    -544249.310    750578.582   6814798.844
10 0 59900  17022.000000  0     323581.539   1056118.707   6788389.967
10 0 59900  17142.000000  0    1190820.882   1328048.091   6642698.305
10 0 59900  17262.000000  0    2041706.808   1561767.340   6380268.579
10 0 59900  17382.000000  0    2860682.404   1753614.169   6005685.796
10 0 59900  17502.000000  0    3632681.334   1900921.008   5525500.814
10 0 59900  17622.000000  0    4343408.204   2002051.051   4948120.995
10 0 59900  17742.000000  0    4979607.166   2056413.022   4283669.660
10 0 59900  17862.000000  0    5529318.159   2064454.351   3543814.957
10 0 59900  17982.000000  0    5982111.652   2027630.373   2741564.570
10 0 59900  18102.000000  0    6329293.703   1948352.446   1891037.265
10 0 59900  18222.000000  0    6564082.768   1829915.289   1007211.042
10 0 59900  18342.000000  0    6681747.553   1676404.188    105652.279
10 0 59900  18462.000000  0    6679705.086   1492586.483   -797766.706
10 0 59900  18582.000000  0    6557574.292   1283788.277  -1687156.496
10 0 59900  18702.000000  0    6317186.581   1055759.124  -2546896.798
10 0 59900  18822.000000  0    5962552.171    814529.604  -3361917.694
10 0 59900  18942.000000  0    5499782.260    566266.003  -4117967.235
10 0 59900  19062.000000  0    4936970.824    317124.779  -4801860.603
10 0 59900  19182.000000  0    4284039.848     73110.484  -5401704.827
10 0 59900  19302.000000  0    3552553.884   -160058.792  -5907097.135
10 0 59900  19422.000000  0    2755507.332   -377076.210  -6309296.142
10 0 59900  19542.000000  0    1907087.592   -573159.130  -6601361.642
10 0 59900  19662.000000  0    1022422.270   -744148.012  -6778262.602
10 0 59900  19782.000000  0     117311.961   -886589.941  -6836955.898
10 0 59900  19902.000000  0    -792047.352   -997804.528  -6776431.893
10 0 59900  20022.000000  0   -1689346.647  -1075932.683  -6597730.078
10 0 59900  20142.000000  0   -2558450.165  -1119966.978  -6303923.239
10 0 59900  20262.000000  0   -3383678.731  -1129763.370  -5900069.054
10 0 59900  20382.000000  0   -4150087.981  -1106034.575  -5393133.669
10 0 59900  20502.000000  0   -4843740.348  -1050324.634  -4791883.190
10 0 59900  20622.000000  0   -5451962.406   -964964.994  -4106743.269
10 0 59900  20742.000000  0   -5963584.182   -853013.044  -3349629.158
10 0 59900  20862.000000  0   -6369155.766   -718173.477  -2533746.407
10 0 59900  20982.000000  0   -6661134.264   -564704.032  -1673364.748
10 0 59900  21102.000000  0   -6834037.311   -397308.388   -783569.450
10 0 59900  21222.000000  0   -6884558.133   -221016.697    120007.982
10 0 59900  21342.000000  0   -6811635.330    -41057.565   1021470.950
10 0 59900  21462.000000  0   -6616480.111    137274.111   1904945.019
10 0 59900  21582.000000  0   -6302557.311    308750.837   2754866.935
10 0 59900  21702.000000  0   -5875520.421    468344.600   3556267.675
10 0 59900  21822.000000  0   -5343102.096    611353.745   4295042.865
10 0 59900  21942.000000  0   -4714964.456    733521.032   4958204.368
10 0 59900  22062.000000  0   -4002513.133    831140.193   5534108.453
10 0 59900  22182.000000  0   -3218681.103    901148.858   6012657.489
10 0 59900  22302.000000  0   -2377685.670    941205.253   6385473.175
10 0 59900  22422.000000  0   -1494763.860    949748.041   6646038.242
10 0 59900  22542.000000  0    -585891.313    926038.086   6789803.501
10 0 59900  22662.000000  0     332507.650    870180.762   6814261.236
10 0 59900  22782.000000  0    1243855.910    783128.896   6718985.804
10 0 59900  22902.000000  0    2131721.476    666666.762   6505640.673
10 0 59900  23022.000000  0    2980112.751    523374.814   6177951.640
10 0 59900  23142.000000  0    3773767.848    356575.649   5741646.591
10 0 59900  23262.000000  0    4498432.249    170262.079   5204360.670
10 0 59900  23382.000000  0    5141119.753    -30991.759   4575508.683
10 0 59900  23502.000000  0    5690352.760   -242134.554   3866125.815
10 0 59900  23622.000000  0    6136377.425   -457754.266   3088677.749
10 0 59900  23742.000000  0    6471347.946   -672205.175   2256841.894
10 0 59900  23862.000000  0    6689473.054   -879742.734   1385263.320
10 0 59900  23982.000000  0    6787123.028  -1074663.082    489292.785
10 0 59900  24102.000000  0    6762896.129  -1251443.167   -415290.935
10 0 59900  24222.000000  0    6617637.914  -1404878.441  -1312569.069
10 0 59900  24342.000000  0    6354414.993  -1530213.707  -2186771.363
10 0 59900  24462.000000  0    5978444.194  -1623264.341  -3022560.828
10 0 59900  24582.000000  0    5496979.538  -1680524.889  -3805306.889
10 0 59900  24702.000000  0    4919161.159  -1699261.982  -4521342.208
10 0 59900  24822.000000  0    4255830.647  -1677589.770  -5158198.619
10 0 59900  24942.000000  0    3519316.842  -1614527.287  -5704818.339
10 0 59900  25062.000000  0    2723197.799  -1510035.973  -6151736.120
10 0 59900  25182.000000  0    1882046.334  -1365036.413  -6491231.889
10 0 59900  25302.000000  0    1011161.906  -1181404.642  -6717453.842
10 0 59900  25422.000000  0     126294.195   -961949.383  -6826508.732
10 0 59900  25542.000000  0    -756636.850   -710369.547  -6816521.351
10 0 59900  25662.000000  0   -1621820.514   -431193.133  -6687663.261
10 0 59900  25782.000000  0   -2453832.356   -129697.481  -6442149.905
10 0 59900  25902.000000  0   -3237902.642    188187.132  -6084205.604
10 0 59900  26022.000000  0   -3960173.804    515989.685  -5619999.615
10 0 59900  26142.000000  0   -4607945.776    846825.034  -5057550.440
10 0 59900  26262.000000  0   -5169902.479   1173532.418  -4406599.389
10 0 59900  26382.000000  0   -5636317.919   1488825.643  -3678453.561
10 0 59900  26502.000000  0   -5999234.429   1785450.362  -2885797.934
10 0 59900  26622.000000  0   -6252610.204   2056344.613  -2042480.371
10 0 59900  26742.000000  0   -6392432.215   2294800.069  -1163272.206
10 0 59900  26862.000000  0   -6416790.817   2494619.863   -263607.514
10 0 59900  26982.000000  0   -6325912.638   2650268.056    640693.867
10 0 59900  27102.000000  0   -6122149.645   2757007.482   1533712.514
10 0 59900  27222.000000  0   -5809925.358   2811022.637   2399718.731
10 0 59900  27342.000000  0   -5395638.739   2809523.198   3223458.249
10 0 59900  27462.000000  0   -4887529.743   2750825.993   3990428.674
10 0 59900  27582.000000  0   -4295507.900   2634412.887   4687139.732
10 0 59900  27702.000000  0   -3630951.175   2460964.344   5301351.430
10 0 59900  27822.000000  0   -2906480.031   2232368.287   5822288.056
10 0 59900  27942.000000  0   -2135710.046   1951703.812   6240824.450
10 0 59900  28062.000000  0   -1332989.564   1623199.660   6549640.453
10 0 59900  28182.000000  0    -513128.409   1252169.080   6743341.769
10 0 59900  28302.000000  0     308875.702    844922.381   6818547.546
10 0 59900  28422.000000  0    1118110.753    408659.019   6773945.623
10 0 59900  28542.000000  0    1900019.723    -48659.210   6610313.794
10 0 59900  28662.000000  0    2640661.340   -518452.671   6330507.858
10 0 59900  28782.000000  0    3326959.131   -991684.084   5939415.864
10 0 59900  28902.000000  0    3946935.292  -1459031.045   5443878.056
10 0 59900  29022.000000  0    4489923.889  -1911069.347   4852572.502
10 0 59900  29142.000000  0    4946759.830  -2338462.520   4175869.276
10 0 59900  29262.000000  0    5309942.161  -2732155.011   3425653.788
10 0 59900  29382.000000  0    5573765.806  -3083564.540   2615118.808
10 0 59900  29502.000000  0    5734416.833  -3384768.302   1758530.707
10 0 59900  29622.000000  0    5790031.444  -3628679.873    870975.269
10 0 59900  29742.000000  0    5740715.714  -3809211.390    -31915.220
10 0 59900  29862.000000  0    5588525.639  -3921416.474   -934245.076
10 0 59900  29982.000000  0    5337407.323  -3961610.579  -1820144.992
10 0 59900  30102.000000  0    4993098.899  -3927464.546  -2674059.132
10 0 59900  30222.000000  0    4562997.445  -3818071.124  -3481023.895
10 0 59900  30342.000000  0    4055994.755  -3633981.925  -4226933.007
10 0 59900  30462.000000  0    3482286.529  -3377214.806  -4898782.905
10 0 59900  30582.000000  0    2853160.462  -3051231.343  -5484894.523
10 0 59900  30702.000000  0    2180768.989  -2660886.736  -5975106.934
10 0 59900  30822.000000  0    1477892.764  -2212354.807  -6360943.011
10 0 59900  30942.000000  0     757697.235  -1713027.087  -6635746.837
10 0 59900  31062.000000  0      33487.369  -1171388.230  -6794787.573
10 0 59900  31182.000000  0    -681533.906   -596872.345  -6835331.256
10 0 59900  31302.000000  0   -1374500.327       298.320  -6756682.061
10 0 59900  31422.000000  0   -2033108.638    609290.929  -6560192.515
10 0 59900  31542.000000  0   -2645831.805   1218853.324  -6249242.341
10 0 59900  31662.000000  0   -3202116.732   1817516.608  -5829186.876
10 0 59900  31782.000000  0   -3692565.279   2393806.384  -5307275.526
10 0 59900  31902.000000  0   -4109096.526   2936460.641  -4692538.678
10 0 59900  32022.000000  0   -4445085.450   3434649.518  -3995641.622
10 0 59900  32142.000000  0   -4695474.093   3878192.537  -3228709.240
10 0 59900  32262.000000  0   -4856854.771   4257769.718  -2405123.081
99
